APRIZESAT 2             
1 28366U 04025A   26158.19561387  .00000185  00000+0  71028-4 0  9993
2 28366  98.1008 324.7422 0104288 280.3705  78.5742 14.38032160150204
SAUDICOMSAT 1           
1 28369U 04025D   26157.84178848  .00000422  00000+0  10771-3 0  9994
2 28369  98.5772 167.6941 0033198  56.5265 303.9097 14.55465353162624
SAUDICOMSAT 2           
1 28370U 04025E   26157.77413146  .00000308  00000+0  90949-4 0  9990
2 28370  98.6642 169.7254 0054183 291.7008  67.8421 14.49975252158593
APRIZESAT 1             
1 28372U 04025G   26158.30106262  .00000247  00000+0  72777-4 0  9991
2 28372  98.6304 168.7574 0044481 183.6780 176.4093 14.51772304160478
NANOSAT-1               
1 28493U 04049B   26157.69085730  .00001203  00000+0  16577-3 0  9996
2 28493  98.2264 294.0962 0003418 345.3181  14.7930 14.80139180153897
SAUDICOMSAT 7           
1 31119U 07012C   26157.67070396  .00000562  00000+0  10971-3 0  9997
2 31119  98.3773 131.5874 0054657 228.5814 131.0686 14.66100184 20895
SAUDICOMSAT 6           
1 31121U 07012E   26158.17031976  .00000724  00000+0  14772-3 0  9990
2 31121  98.4093 125.5008 0071795 359.1037   1.0024 14.62545684 18721
SAUDICOMSAT 5           
1 31124U 07012H   26157.65879604  .00000646  00000+0  11970-3 0  9993
2 31124  98.3484 132.3249 0047855 157.2563 203.0776 14.68144162 22052
SAUDICOMSAT 3           
1 31125U 07012J   26158.18193285  .00000885  00000+0  15228-3 0  9992
2 31125  98.3138 133.4079 0040509  83.8456 276.7362 14.70688991 23354
SAUDICOMSAT 4           
1 31127U 07012L   26158.17952274  .00000571  00000+0  11480-3 0  9992
2 31127  98.3978 130.5461 0062140 290.1665  69.2860 14.64501989 19820
APRIZESAT 4             
1 35684U 09041D   26158.47943081  .00000804  00000+0  10239-3 0  9997
2 35684  98.1412 233.6064 0043100 354.9650   5.1124 14.83866981909923
APRIZESAT 3             
1 35686U 09041F   26158.13448620  .00001326  00000+0  11887-3 0  9991
2 35686  98.2056 310.8781 0062820 100.0489 260.7827 14.96213054914874
S-NET D                 
1 43186U 18014G   26158.23535733  .00005577  00000+0  28879-3 0  9999
2 43186  97.5365  63.0881 0009744  60.1321 300.0879 15.16577805457257
S-NET B                 
1 43187U 18014H   26158.24661594  .00005353  00000+0  27750-3 0  9995
2 43187  97.5372  63.0855 0010325  55.8139 304.4071 15.16548674457256
S-NET A                 
1 43188U 18014J   26158.23428791  .00005626  00000+0  29119-3 0  9999
2 43188  97.5380  63.2802 0010216  56.3941 303.8265 15.16585449457255
S-NET C                 
1 43189U 18014K   26158.25044131  .00005394  00000+0  27958-3 0  9995
2 43189  97.5395  63.3700 0011433  49.3429 310.8795 15.16540740455805
SALSAT                  
1 46495U 20068K   26157.74488443  .00010129  00000+0  35498-3 0  9991
2 46495  97.8851 160.1753 0009049 349.8452  10.2602 15.29647918313761
OOV-CUBE (TUBSAT-30)    
1 60240U 24128F   26157.87486527  .00002819  00000+0  22099-3 0  9991
2 60240  61.9952 261.5303 0045920 131.4461 229.0588 15.02728483104566
LPNTSAT-001 (IOD-1)     
1 68408U 26065A   26158.39007803  .00003105  00000+0  15331-3 0  9991
2 68408  97.4028  39.1066 0017619  43.3767 316.8850 15.18486272 10777
